[{"OBJECT_NAME":"TIANMU-1 09","OBJECT_ID":"2023-101C","EPOCH":"2026-03-09T22:17:34.703232","MEAN_MOTION":15.29080822,"ECCENTRICITY":0.00049013,"INCLINATION":97.267,"RA_OF_ASC_NODE":121.1263,"ARG_OF_PERICENTER":139.4293,"MEAN_ANOMALY":220.7314,"EPHEMERIS_TYPE":0,"CLASSIFICATION_TYPE":"U","NORAD_CAT_ID":57401,"ELEMENT_SET_NO":999,"REV_AT_EPOCH":14647,"BSTAR":0.00030540035,"MEAN_MOTION_DOT":8.553e-5,"MEAN_MOTION_DDOT":0},{"OBJECT_NAME":"STARLINK-30333","OBJECT_ID":"2023-129E","EPOCH":"2026-03-09T11:23:04.163136","MEAN_MOTION":15.27446954,"ECCENTRICITY":0.00013458,"INCLINATION":43.0019,"RA_OF_ASC_NODE":118.784,"ARG_OF_PERICENTER":251.2215,"MEAN_ANOMALY":108.8491,"EPHEMERIS_TYPE":0,"CLASSIFICATION_TYPE":"U","NORAD_CAT_ID":57702,"ELEMENT_SET_NO":999,"REV_AT_EPOCH":14065,"BSTAR":0.0022598898,"MEAN_MOTION_DOT":0.00062198,"MEAN_MOTION_DDOT":0}]
